SKYSAT-C4               
1 41771U 16058B   26169.94755780  .00012955  00000+0  24404-3 0  9997
2 41771  96.9169 191.6461 0001543 136.6942 223.4431 15.48631088545742
SKYSAT-C5               
1 41772U 16058C   26169.99505361  .00006082  00000+0  18428-3 0  9994
2 41772  97.0465 210.5550 0000935 298.2824  61.8326 15.34491256544025
SKYSAT-C2               
1 41773U 16058D   26169.81672715  .00009719  00000+0  22904-3 0  9998
2 41773  97.0165 191.8504 0004569  67.4437 292.7294 15.42100866545300
SKYSAT-C3               
1 41774U 16058E   26170.07693242  .00018719  00000+0  30566-3 0  9990
2 41774  96.9000 200.8504 0001426  99.1434 260.9982 15.52607591546407
SKYSAT-C11              
1 42987U 17068A   26169.91996594  .00021245  00000+0  28508-3 0  9997
2 42987  97.4361 318.8258 0000570  96.3617 263.7704 15.57969641483514
SKYSAT-C10              
1 42988U 17068B   26170.18325515  .00007533  00000+0  22666-3 0  9991
2 42988  97.4514 307.0495 0001110  99.6984 260.4384 15.34665867482663
SKYSAT-C9               
1 42989U 17068C   26170.18628095  .00011475  00000+0  27438-3 0  9993
2 42989  97.4434 308.0065 0009460 126.7659 233.4458 15.41603596483062
SKYSAT-C8               
1 42990U 17068D   26169.89115956  .00008125  00000+0  22675-3 0  9994
2 42990  97.4532 306.5607 0001447  95.7515 264.3894 15.37002946482570
SKYSAT-C7               
1 42991U 17068E   26169.88483293  .00008289  00000+0  23147-3 0  9992
2 42991  97.4543 307.5440 0007195 101.8108 258.3943 15.36953935482639
SKYSAT-C6               
1 42992U 17068F   26170.10341637  .00007382  00000+0  22512-3 0  9993
2 42992  97.4577 307.7282 0004510 132.7401 227.4222 15.34237733482614
